FLOCK 3P-70             
1 41980U 17008AJ  17345.75267891  .00001608  00000-0  70143-4 0  9997
2 41980  97.4779  46.6452 0006887 297.4669  62.5867 15.23623867 45406
